{"type": "FeatureCollection", "features": [ {"type": "Feature", "properties": {"norad_id": 60989, "name": "SENTINEL-2C", "group": "resource", "lat": 19.714384975675888, "lon": 63.22761332809122, "alt_km": 788.8099057677191, "timestamp": "2025-12-19T22:41:52.037078+00:00", "meta": {"OBJECT_NAME": "SENTINEL-2C", "OBJECT_ID": "2024-157A", "EPOCH": "2025-12-19T04:08:36.032064", "MEAN_MOTION": 14.30819997, "ECCENTRICITY": 0.00012209, "INCLINATION": 98.5677, "RA_OF_ASC_NODE": 65.5625, "ARG_OF_PERICENTER": 96.2932, "MEAN_ANOMALY": 263.839, "EPHEMERIS_TYPE": 0, "CLASSIFICATION_TYPE": "U", "NORAD_CAT_ID": 60989, "ELEMENT_SET_NO": 999, "REV_AT_EPOCH": 6724, "BSTAR": 5.9972626e-05, "MEAN_MOTION_DOT": 1.14e-06, "MEAN_MOTION_DDOT": 0}, "tle": {"line1": "1 60989U 24157A   25353.17263926  .00000114  00000+0  59973-4 0  9997", "line2": "2 60989  98.5677  65.5625 0001220  96.2932 263.8390 14.30819997 67242"}}, "geometry": {"type": "Point", "coordinates": [63.22761332809122, 19.714384975675888]}}, {"type": "Feature", "properties": {"norad_id": 61735, "name": "IONOSFERA-M 1", "group": "resource", "lat": 74.01761011233909, "lon": -168.74805366933236, "alt_km": 808.8907858939547, "timestamp": "2025-12-19T22:41:52.037089+00:00", "meta": {"OBJECT_NAME": "IONOSFERA-M 1", "OBJECT_ID": "2024-199A", "EPOCH": "2025-12-19T18:57:48.694752", "MEAN_MOTION": 14.22715455, "ECCENTRICITY": 6.21e-05, "INCLINATION": 98.7399, "RA_OF_ASC_NODE": 223.5841, "ARG_OF_PERICENTER": 12.7318, "MEAN_ANOMALY": 347.3875, "EPHEMERIS_TYPE": 0, "CLASSIFICATION_TYPE": "U", "NORAD_CAT_ID": 61735, "ELEMENT_SET_NO": 999, "REV_AT_EPOCH": 10219, "BSTAR": 3.7465e-05, "MEAN_MOTION_DOT": 4e-07, "MEAN_MOTION_DDOT": 0}, "tle": {"line1": "1 61735U 24199A   25353.79014693  .00000040  00000+0  37465-4 0  9996", "line2": "2 61735  98.7399 223.5841 0000621  12.7318 347.3875 14.22715455102191"}}, "geometry": {"type": "Point", "coordinates": [-168.74805366933236, 74.01761011233909]}}, {"type": "Feature", "properties": {"norad_id": 61736, "name": "IONOSFERA-M 2", "group": "resource", "lat": -76.24395615136727, "lon": 4.721078006596701, "alt_km": 824.6765776597149, "timestamp": "2025-12-19T22:41:52.037099+00:00", "meta": {"OBJECT_NAME": "IONOSFERA-M 2", "OBJECT_ID": "2024-199B", "EPOCH": "2025-12-19T18:06:24.958656", "MEAN_MOTION": 14.22717649, "ECCENTRICITY": 0.0001791, "INCLINATION": 98.7398, "RA_OF_ASC_NODE": 223.4611, "ARG_OF_PERICENTER": 101.7231, "MEAN_ANOMALY": 258.4147, "EPHEMERIS_TYPE": 0, "CLASSIFICATION_TYPE": "U", "NORAD_CAT_ID": 61736, "ELEMENT_SET_NO": 999, "REV_AT_EPOCH": 10531, "BSTAR": 3.5946e-05, "MEAN_MOTION_DOT": 3.6e-07, "MEAN_MOTION_DDOT": 0}, "tle": {"line1": "1 61736U 24199B   25353.75445554  .00000036  00000+0  35946-4 0  9994", "line2": "2 61736  98.7398 223.4611 0001791 101.7231 258.4147 14.22717649105315"}}, "geometry": {"type": "Point", "coordinates": [4.721078006596701, -76.24395615136727]}}, {"type": "Feature", "properties": {"norad_id": 63772, "name": "BIOMASS", "group": "resource", "lat": 7.519720268609047, "lon": -0.07651746530724478, "alt_km": 670.9675970565713, "timestamp": "2025-12-19T22:41:52.037109+00:00", "meta": {"OBJECT_NAME": "BIOMASS", "OBJECT_ID": "2025-090A", "EPOCH": "2025-12-19T10:27:38.474208", "MEAN_MOTION": 14.67534976, "ECCENTRICITY": 0.000107, "INCLINATION": 98.07, "RA_OF_ASC_NODE": 178.3481, "ARG_OF_PERICENTER": 79.7157, "MEAN_ANOMALY": 280.4168, "EPHEMERIS_TYPE": 0, "CLASSIFICATION_TYPE": "U", "NORAD_CAT_ID": 63772, "ELEMENT_SET_NO": 999, "REV_AT_EPOCH": 3432, "BSTAR": 0.00014315, "MEAN_MOTION_DOT": 7.64e-06, "MEAN_MOTION_DDOT": 0}, "tle": {"line1": "1 63772U 25090A   25353.43586197  .00000764  00000+0  14315-3 0  9995", "line2": "2 63772  98.0700 178.3481 0001070  79.7157 280.4168 14.67534976 34320"}}, "geometry": {"type": "Point", "coordinates": [-0.07651746530724478, 7.519720268609047]}}, {"type": "Feature", "properties": {"norad_id": 64694, "name": "GOSAT-GW (IBUKI GW)", "group": "resource", "lat": 22.08509595070474, "lon": -73.96111837887707, "alt_km": 668.0998263818528, "timestamp": "2025-12-19T22:41:52.037119+00:00", "meta": {"OBJECT_NAME": "GOSAT-GW (IBUKI GW)", "OBJECT_ID": "2025-141A", "EPOCH": "2025-12-19T19:19:25.436064", "MEAN_MOTION": 14.67564314, "ECCENTRICITY": 0.0001448, "INCLINATION": 98.0434, "RA_OF_ASC_NODE": 289.1901, "ARG_OF_PERICENTER": 83.493, "MEAN_ANOMALY": 276.644, "EPHEMERIS_TYPE": 0, "CLASSIFICATION_TYPE": "U", "NORAD_CAT_ID": 64694, "ELEMENT_SET_NO": 999, "REV_AT_EPOCH": 2553, "BSTAR": 7.1208e-05, "MEAN_MOTION_DOT": 3.56e-06, "MEAN_MOTION_DDOT": 0}, "tle": {"line1": "1 64694U 25141A   25353.80515551  .00000356  00000+0  71208-4 0  9995", "line2": "2 64694  98.0434 289.1901 0001448  83.4930 276.6440 14.67564314 25538"}}, "geometry": {"type": "Point", "coordinates": [-73.96111837887707, 22.08509595070474]}}, {"type": "Feature", "properties": {"norad_id": 64876, "name": "IONOSFERA-M 3", "group": "resource", "lat": -81.40544237030177, "lon": 42.827836701472464, "alt_km": 828.9005978579216, "timestamp": "2025-12-19T22:41:52.037129+00:00", "meta": {"OBJECT_NAME": "IONOSFERA-M 3", "OBJECT_ID": "2025-155A", "EPOCH": "2025-12-19T18:03:02.140704", "MEAN_MOTION": 14.21442631, "ECCENTRICITY": 0.0002037, "INCLINATION": 98.5792, "RA_OF_ASC_NODE": 315.42, "ARG_OF_PERICENTER": 48.8341, "MEAN_ANOMALY": 311.3012, "EPHEMERIS_TYPE": 0, "CLASSIFICATION_TYPE": "U", "NORAD_CAT_ID": 64876, "ELEMENT_SET_NO": 999, "REV_AT_EPOCH": 2091, "BSTAR": 3.8072e-05, "MEAN_MOTION_DOT": 4.1e-07, "MEAN_MOTION_DDOT": 0}, "tle": {"line1": "1 64876U 25155A   25353.75210811  .00000041  00000+0  38072-4 0  9990", "line2": "2 64876  98.5792 315.4200 0002037  48.8341 311.3012 14.21442631 20919"}}, "geometry": {"type": "Point", "coordinates": [42.827836701472464, -81.40544237030177]}}, {"type": "Feature", "properties": {"norad_id": 64877, "name": "IONOSFERA-M 4", "group": "resource", "lat": 81.34206646467699, "lon": -141.99710959761558, "alt_km": 812.1692011818914, "timestamp": "2025-12-19T22:41:52.037139+00:00", "meta": {"OBJECT_NAME": "IONOSFERA-M 4", "OBJECT_ID": "2025-155B", "EPOCH": "2025-12-19T18:53:31.384320", "MEAN_MOTION": 14.21443797, "ECCENTRICITY": 0.0001435, "INCLINATION": 98.5791, "RA_OF_ASC_NODE": 315.3735, "ARG_OF_PERICENTER": 56.3712, "MEAN_ANOMALY": 303.7602, "EPHEMERIS_TYPE": 0, "CLASSIFICATION_TYPE": "U", "NORAD_CAT_ID": 64877, "ELEMENT_SET_NO": 999, "REV_AT_EPOCH": 2091, "BSTAR": 3.8067e-05, "MEAN_MOTION_DOT": 4.1e-07, "MEAN_MOTION_DDOT": 0}, "tle": {"line1": "1 64877U 25155B   25353.78716880  .00000041  00000+0  38067-4 0  9995", "line2": "2 64877  98.5791 315.3735 0001435  56.3712 303.7602 14.21443797 20912"}}, "geometry": {"type": "Point", "coordinates": [-141.99710959761558, 81.34206646467699]}}, {"type": "Feature", "properties": {"norad_id": 64899, "name": "MICROCARB", "group": "resource", "lat": 62.16235858208667, "lon": -95.37574601839887, "alt_km": 636.2138610079901, "timestamp": "2025-12-19T22:41:52.037150+00:00", "meta": {"OBJECT_NAME": "MICROCARB", "OBJECT_ID": "2025-156A", "EPOCH": "2025-12-19T10:45:02.700288", "MEAN_MOTION": 14.72067357, "ECCENTRICITY": 0.0017459, "INCLINATION": 98.0019, "RA_OF_ASC_NODE": 68.6857, "ARG_OF_PERICENTER": 124.5488, "MEAN_ANOMALY": 235.737, "EPHEMERIS_TYPE": 0, "CLASSIFICATION_TYPE": "U", "NORAD_CAT_ID": 64899, "ELEMENT_SET_NO": 999, "REV_AT_EPOCH": 2152, "BSTAR": 8.8769e-05, "MEAN_MOTION_DOT": 5.09e-06, "MEAN_MOTION_DDOT": 0}, "tle": {"line1": "1 64899U 25156A   25353.44794792  .00000509  00000+0  88769-4 0  9994", "line2": "2 64899  98.0019  68.6857 0017459 124.5488 235.7370 14.72067357 21522"}}, "geometry": {"type": "Point", "coordinates": [-95.37574601839887, 62.16235858208667]}}, {"type": "Feature", "properties": {"norad_id": 64900, "name": "CO3D 3", "group": "resource", "lat": -34.919436919941084, "lon": 75.44043927028122, "alt_km": 511.933300203018, "timestamp": "2025-12-19T22:41:52.037161+00:00", "meta": {"OBJECT_NAME": "CO3D 3", "OBJECT_ID": "2025-156B", "EPOCH": "2025-12-19T18:06:48.100896", "MEAN_MOTION": 15.20203857, "ECCENTRICITY": 0.0001353, "INCLINATION": 97.4345, "RA_OF_ASC_NODE": 70.0218, "ARG_OF_PERICENTER": 80.1069, "MEAN_ANOMALY": 280.0319, "EPHEMERIS_TYPE": 0, "CLASSIFICATION_TYPE": "U", "NORAD_CAT_ID": 64900, "ELEMENT_SET_NO": 999, "REV_AT_EPOCH": 2227, "BSTAR": 0.00026083, "MEAN_MOTION_DOT": 5.583e-05, "MEAN_MOTION_DDOT": 0}, "tle": {"line1": "1 64900U 25156B   25353.75472339  .00005583  00000+0  26083-3 0  9998", "line2": "2 64900  97.4345  70.0218 0001353  80.1069 280.0319 15.20203857 22276"}}, "geometry": {"type": "Point", "coordinates": [75.44043927028122, -34.919436919941084]}}, {"type": "Feature", "properties": {"norad_id": 64901, "name": "CO3D 4", "group": "resource", "lat": -35.63757855624116, "lon": 75.58090755146439, "alt_km": 512.2604276627226, "timestamp": "2025-12-19T22:41:52.037171+00:00", "meta": {"OBJECT_NAME": "CO3D 4", "OBJECT_ID": "2025-156C", "EPOCH": "2025-12-19T14:57:26.055072", "MEAN_MOTION": 15.20230123, "ECCENTRICITY": 0.0001264, "INCLINATION": 97.434, "RA_OF_ASC_NODE": 69.8917, "ARG_OF_PERICENTER": 174.7354, "MEAN_ANOMALY": 185.3894, "EPHEMERIS_TYPE": 0, "CLASSIFICATION_TYPE": "U", "NORAD_CAT_ID": 64901, "ELEMENT_SET_NO": 999, "REV_AT_EPOCH": 2225, "BSTAR": 0.00021367, "MEAN_MOTION_DOT": 4.564e-05, "MEAN_MOTION_DDOT": 0}, "tle": {"line1": "1 64901U 25156C   25353.62321823  .00004564  00000+0  21367-3 0  9994", "line2": "2 64901  97.4340  69.8917 0001264 174.7354 185.3894 15.20230123 22251"}}, "geometry": {"type": "Point", "coordinates": [75.58090755146439, -35.63757855624116]}}]}